NORAD_CAT_ID,OBJECT_NAME,OBJECT_TYPE,EPOCH,MEAN_MOTION,ECCENTRICITY,INCLINATION,RA_OF_ASC_NODE,ARG_OF_PERICENTER,MEAN_ANOMALY,BSTAR,MEAN_MOTION_DOT,MEAN_MOTION_DDOT,TLE_LINE0,TLE_LINE1,TLE_LINE2,SEMIMAJOR_AXIS,PERIOD,APOGEE,PERIGEE,DECAYED
49409.0,STARLINK-3075,PAYLOAD,2023-03-30 12:25:38,15.08824532,7.16e-05,53.2179,15.7523,117.7121,242.3944,-0.00022699,-3.897e-05,0.0,0 STARLINK-3075,1 49409U 21104B   23089.51780400 -.00003897  00000-0 -22699-3 0  9991,2 49409  53.2179  15.7523 0000716 117.7121 242.3944 15.08824532 77406,6917.928,95.439,540.288,539.297,0.0
49409.0,STARLINK-3075,PAYLOAD,2023-03-31 04:19:28,15.08861089,0.0001264,53.2183,12.7754,110.4403,249.6725,0.0005047,7.758e-05,0.0,0 STARLINK-3075,1 49409U 21104B   23090.18019369  .00007758  00000-0  50470-3 0  9991,2 49409  53.2183  12.7754 0001264 110.4403 249.6725 15.08861089 77502,6917.816,95.436,540.555,538.807,0.0
49409.0,STARLINK-3075,PAYLOAD,2023-03-31 18:37:58,15.08837103,0.0001635,53.2182,10.1018,92.6145,267.5034,0.00015494,2.179e-05,0.0,0 STARLINK-3075,1 49409U 21104B   23090.77636886  .00002179  00000-0  15494-3 0  9994,2 49409  53.2182  10.1018 0001635  92.6145 267.5034 15.08837103 77593,6917.889,95.438,540.885,538.623,0.0
49409.0,STARLINK-3075,PAYLOAD,2023-04-01 04:10:16,15.08846468,0.0001228,53.2169,8.3159,106.451,253.6617,0.00030304,4.539e-05,0.0,0 STARLINK-3075,1 49409U 21104B   23091.17380468  .00004539  00000-0  30304-3 0  9990,2 49409  53.2169   8.3159 0001228 106.4510 253.6617 15.08846468 76575,6917.861,95.437,540.575,538.876,0.0
49409.0,STARLINK-3075,PAYLOAD,2023-04-02 00:50:18,15.08832805,0.0001234,53.218,4.4528,77.3643,282.7488,0.00012474,1.698e-05,0.0,0 STARLINK-3075,1 49409U 21104B   23092.03493529  .00001698  00000-0  12474-3 0  9990,2 49409  53.2180   4.4528 0001234  77.3643 282.7488 15.08832805 77788,6917.902,95.438,540.621,538.914,0.0
49409.0,STARLINK-3075,PAYLOAD,2023-04-02 21:30:19,15.08853235,0.0001217,53.2185,0.5871,68.7805,291.3318,0.00072114,0.00011212,0.0,0 STARLINK-3075,1 49409U 21104B   23092.89605517  .00011212  00000-0  72114-3 0  9996,2 49409  53.2185   0.5871 0001217  68.7805 291.3318 15.08853235 76839,6917.84,95.437,540.547,538.863,0.0
49409.0,STARLINK-3075,PAYLOAD,2023-04-03 02:16:28,15.08867364,0.000126,53.2186,359.6948,71.1877,288.9252,0.0010331,0.00016204,0.0,0 STARLINK-3075,1 49409U 21104B   23093.09477123  .00016204  00000-0  10331-2 0  9997,2 49409  53.2186 359.6948 0001260  71.1877 288.9252 15.08867364 77948,6917.797,95.436,540.533,538.79,0.0
49409.0,STARLINK-3075,PAYLOAD,2023-04-03 18:10:19,15.08854148,0.0001307,53.218,356.722,79.0708,281.0431,0.00030727,4.608e-05,0.0,0 STARLINK-3075,1 49409U 21104B   23093.75716988  .00004608  00000-0  30727-3 0  9992,2 49409  53.2180 356.7220 0001307  79.0708 281.0431 15.08854148 78046,6917.837,95.437,540.606,538.798,0.0
49409.0,STARLINK-3075,PAYLOAD,2023-04-03 21:21:05,15.08854223,0.0001089,53.2178,356.1272,71.1574,288.9536,0.00037074,5.62e-05,0.0,0 STARLINK-3075,1 49409U 21104B   23093.88964899  .00005620  00000-0  37074-3 0  9999,2 49409  53.2178 356.1272 0001089  71.1574 288.9536 15.08854223 76982,6917.837,95.437,540.455,538.949,0.0
49409.0,STARLINK-3075,PAYLOAD,2023-04-04 02:07:14,15.08864369,0.0001101,53.2178,355.2342,88.6377,271.4741,0.00078598,0.00012251,0.0,0 STARLINK-3075,1 49409U 21104B   23094.08836541  .00012251  00000-0  78598-3 0  9998,2 49409  53.2178 355.2342 0001101  88.6377 271.4741 15.08864369 77011,6917.806,95.436,540.433,538.909,0.0
49409.0,STARLINK-3075,PAYLOAD,2023-04-04 21:11:52,15.08845053,0.0001109,53.2176,351.6663,104.3535,255.758,0.00078093,0.00012164,0.0,0 STARLINK-3075,1 49409U 21104B   23094.88324895  .00012164  00000-0  78093-3 0  9993,2 49409  53.2176 351.6663 0001109 104.3535 255.7580 15.08845053 77133,6917.865,95.437,540.497,538.963,0.0
49409.0,STARLINK-3075,PAYLOAD,2023-04-05 03:33:25,15.08846595,0.0001549,53.2177,350.4762,89.3122,270.8047,0.0005379,8.285e-05,0.0,0 STARLINK-3075,1 49409U 21104B   23095.14820943  .00008285  00000-0  53790-3 0  9994,2 49409  53.2177 350.4762 0001549  89.3122 270.8047 15.08846595 78255,6917.86,95.437,540.797,538.654,0.0
49409.0,STARLINK-3075,PAYLOAD,2023-04-05 21:02:40,15.08837405,0.0001475,53.2158,347.2046,102.5271,257.5886,0.00031869,4.787e-05,0.0,0 STARLINK-3075,1 49409U 21104B   23095.87685218  .00004787  00000-0  31869-3 0  9994,2 49409  53.2158 347.2046 0001475 102.5271 257.5886 15.08837405 78369,6917.888,95.438,540.774,538.733,0.0
49409.0,STARLINK-3075,PAYLOAD,2023-04-06 01:48:49,15.08839088,0.0001065,53.216,346.3121,110.8003,249.3104,0.00035922,5.434e-05,0.0,0 STARLINK-3075,1 49409U 21104B   23096.07557051  .00005434  00000-0  35922-3 0  9994,2 49409  53.2160 346.3121 0001065 110.8003 249.3104 15.08839088 77311,6917.883,95.438,540.485,539.011,0.0
49409.0,STARLINK-3075,PAYLOAD,2023-04-06 22:28:50,15.08836361,0.0001258,53.2172,342.4458,99.7512,260.3622,0.00018433,2.647e-05,0.0,0 STARLINK-3075,1 49409U 21104B   23096.93669654  .00002647  00000-0  18433-3 0  9993,2 49409  53.2172 342.4458 0001258  99.7512 260.3622 15.08836361 77441,6917.892,95.438,540.627,538.886,0.0
49409.0,STARLINK-3075,PAYLOAD,2023-04-07 01:39:36,15.08838465,0.0001106,53.2172,341.851,91.1779,268.934,0.00017251,2.459e-05,0.0,0 STARLINK-3075,1 49409U 21104B   23097.06917646  .00002459  00000-0  17251-3 0  9993,2 49409  53.2172 341.8510 0001106  91.1779 268.9340 15.08838465 78546,6917.885,95.438,540.515,538.985,0.0
49409.0,STARLINK-3075,PAYLOAD,2023-04-08 01:30:23,15.08846939,0.0001167,53.216,337.3919,86.1585,273.954,0.00028319,4.223e-05,0.0,0 STARLINK-3075,1 49409U 21104B   23098.06277528  .00004223  00000-0  28319-3 0  9990,2 49409  53.2160 337.3919 0001167  86.1585 273.9540 15.08846939 77612,6917.859,95.437,540.531,538.917,0.0
49409.0,STARLINK-3075,PAYLOAD,2023-04-08 18:59:38,15.08841605,0.0001208,53.2161,334.1205,72.213,287.8994,0.00015844,2.235e-05,0.0,0 STARLINK-3075,1 49409U 21104B   23098.79141850  .00002235  00000-0  15844-3 0  9998,2 49409  53.2161 334.1205 0001208  72.2130 287.8994 15.08841605 78808,6917.875,95.437,540.576,538.905,0.0
49409.0,STARLINK-3075,PAYLOAD,2023-04-09 01:21:10,15.08846261,0.0001176,53.2164,332.9307,86.2885,273.8242,0.0002185,3.192e-05,0.0,0 STARLINK-3075,1 49409U 21104B   23099.05637599  .00003192  00000-0  21850-3 0  9995,2 49409  53.2164 332.9307 0001176  86.2885 273.8242 15.08846261 77764,6917.861,95.437,540.54,538.913,0.0
49409.0,STARLINK-3075,PAYLOAD,2023-04-09 22:01:11,15.08845622,0.0001211,53.2164,329.0638,90.9114,269.2017,0.00011897,1.606e-05,0.0,0 STARLINK-3075,1 49409U 21104B   23099.91749517  .00001606  00000-0  11897-3 0  9992,2 49409  53.2164 329.0638 0001211  90.9114 269.2017 15.08845622 77898,6917.863,95.437,540.566,538.89,0.0
49409.0,STARLINK-3075,PAYLOAD,2023-04-10 01:11:57,15.08846433,0.0001138,53.2172,328.4694,90.4593,269.6529,7.4844e-05,9.04e-06,0.0,0 STARLINK-3075,1 49409U 21104B   23100.04997436  .00000904  00000-0  74844-4 0  9996,2 49409  53.2172 328.4694 0001138  90.4593 269.6529 15.08846433 78991,6917.861,95.437,540.513,538.938,0.0
49409.0,STARLINK-3075,PAYLOAD,2023-04-10 21:51:58,15.08843049,0.0001155,53.2164,324.6055,90.8956,269.2168,6.0889e-05,6.81e-06,0.0,0 STARLINK-3075,1 49409U 21104B   23100.91109584  .00000681  00000-0  60889-4 0  9997,2 49409  53.2164 324.6055 0001155  90.8956 269.2168 15.08843049 78048,6917.871,95.437,540.535,538.937,0.0
49409.0,STARLINK-3075,PAYLOAD,2023-04-11 01:02:44,15.08843858,0.0001171,53.2167,324.0103,90.498,269.6146,7.0088e-05,8.28e-06,0.0,0 STARLINK-3075,1 49409U 21104B   23101.04357510  .00000828  00000-0  70088-4 0  9991,2 49409  53.2167 324.0103 0001171  90.4980 269.6146 15.08843858 79140,6917.869,95.437,540.544,538.924,0.0
49409.0,STARLINK-3075,PAYLOAD,2023-04-11 21:42:46,15.08834883,0.0001183,53.2164,320.1443,86.378,273.7348,-4.221e-05,-9.59e-06,0.0,0 STARLINK-3075,1 49409U 21104B   23101.90470163 -.00000959  00000-0 -42210-4 0  9999,2 49409  53.2164 320.1443 0001183  86.3780 273.7348 15.08834883 78198,6917.896,95.438,540.579,538.943,0.0
49409.0,STARLINK-3075,PAYLOAD,2023-04-12 00:53:32,15.08834671,0.0001206,53.2164,319.5497,86.9662,273.1468,-3.6154e-05,-8.63e-06,0.0,0 STARLINK-3075,1 49409U 21104B   23102.03718206 -.00000863  00000-0 -36154-4 0  9991,2 49409  53.2164 319.5497 0001206  86.9662 273.1468 15.08834671 78215,6917.897,95.438,540.596,538.927,0.0
49409.0,STARLINK-3075,PAYLOAD,2023-04-12 23:08:56,15.08844155,0.0001121,53.2148,315.3867,90.6666,269.4455,2.9647e-05,1.84e-06,0.0,0 STARLINK-3075,1 49409U 21104B   23102.96453852  .00000184  00000-0  29647-4 0  9999,2 49409  53.2148 315.3867 0001121  90.6666 269.4455 15.08844155 78351,6917.868,95.437,540.508,538.957,0.0
49409.0,STARLINK-3075,PAYLOAD,2023-04-14 13:18:11,15.08841644,0.000138,53.2152,308.2534,69.0378,291.0762,0.00010505,1.384e-05,0.0,0 STARLINK-3075,1 49409U 21104B   23104.55430238  .00001384  00000-0  10505-3 0  9994,2 49409  53.2152 308.2534 0001380  69.0378 291.0762 15.08841644 79673,6917.875,95.437,540.695,538.786,0.0
49409.0,STARLINK-3075,PAYLOAD,2023-04-15 13:08:59,15.0883438,0.0001388,53.2144,303.7924,71.6182,288.4961,0.00019212,2.771e-05,0.0,0 STARLINK-3075,1 49409U 21104B   23105.54790574  .00002771  00000-0  19212-3 0  9991,2 49409  53.2144 303.7924 0001388  71.6182 288.4961 15.08834380 79824,6917.898,95.438,540.723,538.802,0.0
49409.0,STARLINK-3075,PAYLOAD,2023-04-15 19:30:31,15.08846295,9.58e-05,53.2154,302.6,93.0023,267.1078,3.1259e-05,2.1e-06,0.0,0 STARLINK-3075,1 49409U 21104B   23105.81286024  .00000210  00000-0  31259-4 0  9993,2 49409  53.2154 302.6000 0000958  93.0023 267.1078 15.08846295 78787,6917.861,95.437,540.389,539.063,0.0
49409.0,STARLINK-3075,PAYLOAD,2023-04-16 00:16:40,15.08852721,0.0001119,53.216,301.7075,92.7874,267.3247,0.00017751,2.539e-05,0.0,0 STARLINK-3075,1 49409U 21104B   23106.01157606  .00002539  00000-0  17751-3 0  9995,2 49409  53.2160 301.7075 0001119  92.7874 267.3247 15.08852721 79890,6917.842,95.437,540.481,538.932,0.0
